{"type": "FeatureCollection", "features": [ {"type": "Feature", "properties": {"norad_id": 66052, "name": "HRC MONOBLOCK CAMERA", "group": "stations", "lat": -47.0073325275387, "lon": -3.804430101168913, "alt_km": 406.78702971511666, "timestamp": "2025-12-17T10:52:53.122350+00:00", "meta": {"OBJECT_NAME": "HRC MONOBLOCK CAMERA", "OBJECT_ID": "1998-067XR", "EPOCH": "2025-12-16T16:50:34.259424", "MEAN_MOTION": 15.54421487, "ECCENTRICITY": 0.00028317, "INCLINATION": 51.6291, "RA_OF_ASC_NODE": 121.7469, "ARG_OF_PERICENTER": 202.0101, "MEAN_ANOMALY": 158.0768, "EPHEMERIS_TYPE": 0, "CLASSIFICATION_TYPE": "U", "NORAD_CAT_ID": 66052, "ELEMENT_SET_NO": 999, "REV_AT_EPOCH": 945, "BSTAR": 0.00049497455, "MEAN_MOTION_DOT": 0.00032777, "MEAN_MOTION_DDOT": 0}, "tle": {"line1": "1 66052U 98067XR  25350.70178541  .00032777  00000+0  49497-3 0  9998", "line2": "2 66052  51.6291 121.7469 0002831 202.0101 158.0768 15.54421487  9459"}}, "geometry": {"type": "Point", "coordinates": [-3.804430101168913, -47.0073325275387]}}, {"type": "Feature", "properties": {"norad_id": 66174, "name": "HTV-X1", "group": "stations", "lat": 43.605833848319705, "lon": 168.12895679482196, "alt_km": 413.86626353714473, "timestamp": "2025-12-17T10:52:53.122360+00:00", "meta": {"OBJECT_NAME": "HTV-X1", "OBJECT_ID": "2025-241A", "EPOCH": "2025-12-16T20:41:13.172928", "MEAN_MOTION": 15.49626059, "ECCENTRICITY": 0.00031782, "INCLINATION": 51.6308, "RA_OF_ASC_NODE": 122.0659, "ARG_OF_PERICENTER": 259.3256, "MEAN_ANOMALY": 100.7375, "EPHEMERIS_TYPE": 0, "CLASSIFICATION_TYPE": "U", "NORAD_CAT_ID": 66174, "ELEMENT_SET_NO": 999, "REV_AT_EPOCH": 51, "BSTAR": 0.00014251236, "MEAN_MOTION_DOT": 7.581e-05, "MEAN_MOTION_DDOT": 0}, "tle": {"line1": "1 66174U 25241A   25350.86195802  .00007581  00000+0  14251-3 0  9998", "line2": "2 66174  51.6308 122.0659 0003178 259.3256 100.7375 15.49626059   511"}}, "geometry": {"type": "Point", "coordinates": [168.12895679482196, 43.605833848319705]}}, {"type": "Feature", "properties": {"norad_id": 66515, "name": "SZ-21 MODULE", "group": "stations", "lat": -25.09789513973827, "lon": -44.734790076891436, "alt_km": 378.53126752246135, "timestamp": "2025-12-17T10:52:53.122373+00:00", "meta": {"OBJECT_NAME": "SZ-21 MODULE", "OBJECT_ID": "2025-246C", "EPOCH": "2025-12-16T08:58:35.368608", "MEAN_MOTION": 15.62674024, "ECCENTRICITY": 0.00060905, "INCLINATION": 41.4775, "RA_OF_ASC_NODE": 353.8744, "ARG_OF_PERICENTER": 279.5924, "MEAN_ANOMALY": 80.4228, "EPHEMERIS_TYPE": 0, "CLASSIFICATION_TYPE": "U", "NORAD_CAT_ID": 66515, "ELEMENT_SET_NO": 999, "REV_AT_EPOCH": 501, "BSTAR": 0.00023521282, "MEAN_MOTION_DOT": 0.00021423, "MEAN_MOTION_DDOT": 0}, "tle": {"line1": "1 66515U 25246C   25350.37402047  .00021423  00000+0  23521-3 0  9991", "line2": "2 66515  41.4775 353.8744 0006090 279.5924  80.4228 15.62674024  5017"}}, "geometry": {"type": "Point", "coordinates": [-44.734790076891436, -25.09789513973827]}}, {"type": "Feature", "properties": {"norad_id": 66645, "name": "SHENZHOU-22", "group": "stations", "lat": -3.296384055881203, "lon": -15.653803637631237, "alt_km": 388.1569708232919, "timestamp": "2025-12-17T10:52:53.122395+00:00", "meta": {"OBJECT_NAME": "SHENZHOU-22", "OBJECT_ID": "2025-272A", "EPOCH": "2025-12-17T00:08:35.156544", "MEAN_MOTION": 15.59356604, "ECCENTRICITY": 0.00077847, "INCLINATION": 41.4682, "RA_OF_ASC_NODE": 350.8038, "ARG_OF_PERICENTER": 67.2573, "MEAN_ANOMALY": 292.9088, "EPHEMERIS_TYPE": 0, "CLASSIFICATION_TYPE": "U", "NORAD_CAT_ID": 66645, "ELEMENT_SET_NO": 999, "REV_AT_EPOCH": 26357, "BSTAR": 0.00024375831, "MEAN_MOTION_DOT": 0.00019519, "MEAN_MOTION_DDOT": 0}, "tle": {"line1": "1 66645U 25272A   25351.00596246  .00019519  00000+0  24376-3 0  9992", "line2": "2 66645  41.4682 350.8038 0007784  67.2573 292.9088 15.59356604263572"}}, "geometry": {"type": "Point", "coordinates": [-15.653803637631237, -3.296384055881203]}}, {"type": "Feature", "properties": {"norad_id": 66664, "name": "SOYUZ-MS 28", "group": "stations", "lat": 43.60583571071086, "lon": 168.12896108055673, "alt_km": 413.86626330227864, "timestamp": "2025-12-17T10:52:53.122416+00:00", "meta": {"OBJECT_NAME": "SOYUZ-MS 28", "OBJECT_ID": "2025-275A", "EPOCH": "2025-12-16T20:41:13.172928", "MEAN_MOTION": 15.49626059, "ECCENTRICITY": 0.00031782, "INCLINATION": 51.6308, "RA_OF_ASC_NODE": 122.0659, "ARG_OF_PERICENTER": 259.3256, "MEAN_ANOMALY": 100.7375, "EPHEMERIS_TYPE": 0, "CLASSIFICATION_TYPE": "U", "NORAD_CAT_ID": 66664, "ELEMENT_SET_NO": 999, "REV_AT_EPOCH": 128, "BSTAR": 0.00014251236, "MEAN_MOTION_DOT": 7.581e-05, "MEAN_MOTION_DDOT": 0}, "tle": {"line1": "1 66664U 25275A   25350.86195802  .00007581  00000+0  14251-3 0  9999", "line2": "2 66664  51.6308 122.0659 0003178 259.3256 100.7375 15.49626059  1280"}}, "geometry": {"type": "Point", "coordinates": [168.12896108055673, 43.60583571071086]}}, {"type": "Feature", "properties": {"norad_id": 66906, "name": "1998-067XS", "group": "stations", "lat": 47.442634965703014, "lon": -120.60825181796748, "alt_km": 408.6962782508581, "timestamp": "2025-12-17T10:52:53.122434+00:00", "meta": {"OBJECT_NAME": "1998-067XS", "OBJECT_ID": "1998-067XS", "EPOCH": "2025-12-16T12:45:26.228448", "MEAN_MOTION": 15.50774437, "ECCENTRICITY": 0.00032711, "INCLINATION": 51.6305, "RA_OF_ASC_NODE": 123.6106, "ARG_OF_PERICENTER": 220.1232, "MEAN_ANOMALY": 139.9515, "EPHEMERIS_TYPE": 0, "CLASSIFICATION_TYPE": "U", "NORAD_CAT_ID": 66906, "ELEMENT_SET_NO": 999, "REV_AT_EPOCH": 220, "BSTAR": 0.00042417105, "MEAN_MOTION_DOT": 0.00024501, "MEAN_MOTION_DDOT": 0}, "tle": {"line1": "1 66906U 98067XS  25350.53155357  .00024501  00000+0  42417-3 0  9998", "line2": "2 66906  51.6305 123.6106 0003271 220.1232 139.9515 15.50774437  2203"}}, "geometry": {"type": "Point", "coordinates": [-120.60825181796748, 47.442634965703014]}}, {"type": "Feature", "properties": {"norad_id": 66907, "name": "1998-067XT", "group": "stations", "lat": 27.98262737120383, "lon": -85.92957098412825, "alt_km": 408.24664854194, "timestamp": "2025-12-17T10:52:53.122451+00:00", "meta": {"OBJECT_NAME": "1998-067XT", "OBJECT_ID": "1998-067XT", "EPOCH": "2025-12-16T20:21:31.143168", "MEAN_MOTION": 15.51965497, "ECCENTRICITY": 0.00040676, "INCLINATION": 51.63, "RA_OF_ASC_NODE": 121.975, "ARG_OF_PERICENTER": 250.8278, "MEAN_ANOMALY": 109.2271, "EPHEMERIS_TYPE": 0, "CLASSIFICATION_TYPE": "U", "NORAD_CAT_ID": 66907, "ELEMENT_SET_NO": 999, "REV_AT_EPOCH": 225, "BSTAR": 0.00093338761, "MEAN_MOTION_DOT": 0.00057093, "MEAN_MOTION_DDOT": 0}, "tle": {"line1": "1 66907U 98067XT  25350.84827712  .00057093  00000+0  93339-3 0  9995", "line2": "2 66907  51.6300 121.9750 0004067 250.8278 109.2271 15.51965497  2252"}}, "geometry": {"type": "Point", "coordinates": [-85.92957098412825, 27.98262737120383]}}, {"type": "Feature", "properties": {"norad_id": 66908, "name": "1998-067XU", "group": "stations", "lat": 25.570679057805457, "lon": -83.32057064019871, "alt_km": 408.1987456081906, "timestamp": "2025-12-17T10:52:53.122471+00:00", "meta": {"OBJECT_NAME": "1998-067XU", "OBJECT_ID": "1998-067XU", "EPOCH": "2025-12-16T14:09:49.500000", "MEAN_MOTION": 15.5202573, "ECCENTRICITY": 0.00042401, "INCLINATION": 51.6296, "RA_OF_ASC_NODE": 123.2512, "ARG_OF_PERICENTER": 248.5284, "MEAN_ANOMALY": 111.5254, "EPHEMERIS_TYPE": 0, "CLASSIFICATION_TYPE": "U", "NORAD_CAT_ID": 66908, "ELEMENT_SET_NO": 999, "REV_AT_EPOCH": 221, "BSTAR": 0.00090601602, "MEAN_MOTION_DOT": 0.00055516, "MEAN_MOTION_DDOT": 0}, "tle": {"line1": "1 66908U 98067XU  25350.59015625  .00055516  00000+0  90602-3 0  9998", "line2": "2 66908  51.6296 123.2512 0004240 248.5284 111.5254 15.52025730  2213"}}, "geometry": {"type": "Point", "coordinates": [-83.32057064019871, 25.570679057805457]}}, {"type": "Feature", "properties": {"norad_id": 66909, "name": "SILVERSAT", "group": "stations", "lat": 22.569598099664333, "lon": -80.27672019863314, "alt_km": 408.1170083503821, "timestamp": "2025-12-17T10:52:53.122485+00:00", "meta": {"OBJECT_NAME": "SILVERSAT", "OBJECT_ID": "1998-067XV", "EPOCH": "2025-12-16T14:08:52.774080", "MEAN_MOTION": 15.52156791, "ECCENTRICITY": 0.00040754, "INCLINATION": 51.6305, "RA_OF_ASC_NODE": 123.2468, "ARG_OF_PERICENTER": 249.7085, "MEAN_ANOMALY": 110.3467, "EPHEMERIS_TYPE": 0, "CLASSIFICATION_TYPE": "U", "NORAD_CAT_ID": 66909, "ELEMENT_SET_NO": 999, "REV_AT_EPOCH": 221, "BSTAR": 0.00095917161, "MEAN_MOTION_DOT": 0.00059105, "MEAN_MOTION_DDOT": 0}, "tle": {"line1": "1 66909U 98067XV  25350.58949970  .00059105  00000+0  95917-3 0  9999", "line2": "2 66909  51.6305 123.2468 0004075 249.7085 110.3467 15.52156791  2218"}}, "geometry": {"type": "Point", "coordinates": [-80.27672019863314, 22.569598099664333]}}, {"type": "Feature", "properties": {"norad_id": 66910, "name": "1998-067XW", "group": "stations", "lat": 15.19435511915665, "lon": -73.49620384394692, "alt_km": 407.5411472695487, "timestamp": "2025-12-17T10:52:53.122495+00:00", "meta": {"OBJECT_NAME": "1998-067XW", "OBJECT_ID": "1998-067XW", "EPOCH": "2025-12-16T14:06:24.222240", "MEAN_MOTION": 15.52215974, "ECCENTRICITY": 0.00046619, "INCLINATION": 51.6297, "RA_OF_ASC_NODE": 123.2359, "ARG_OF_PERICENTER": 228.2549, "MEAN_ANOMALY": 131.8043, "EPHEMERIS_TYPE": 0, "CLASSIFICATION_TYPE": "U", "NORAD_CAT_ID": 66910, "ELEMENT_SET_NO": 999, "REV_AT_EPOCH": 221, "BSTAR": 0.00082001517, "MEAN_MOTION_DOT": 0.00050519, "MEAN_MOTION_DDOT": 0}, "tle": {"line1": "1 66910U 98067XW  25350.58778035  .00050519  00000+0  82002-3 0  9994", "line2": "2 66910  51.6297 123.2359 0004661 228.2549 131.8043 15.52215974  2214"}}, "geometry": {"type": "Point", "coordinates": [-73.49620384394692, 15.19435511915665]}}]}